[{"OBJECT_NAME":"ONEWEB-0387","OBJECT_ID":"2021-090AL","EPOCH":"2026-03-09T16:05:48.490368","MEAN_MOTION":13.20771137,"ECCENTRICITY":0.00015871,"INCLINATION":87.9161,"RA_OF_ASC_NODE":294.3326,"ARG_OF_PERICENTER":72.7354,"MEAN_ANOMALY":287.3953,"EPHEMERIS_TYPE":0,"CLASSIFICATION_TYPE":"U","NORAD_CAT_ID":49313,"ELEMENT_SET_NO":999,"REV_AT_EPOCH":21668,"BSTAR":-0.00067251148,"MEAN_MOTION_DOT":-2.6e-6,"MEAN_MOTION_DDOT":0},{"OBJECT_NAME":"THOR ABLESTAR DEB","OBJECT_ID":"1965-065D","EPOCH":"2026-03-09T21:53:22.766784","MEAN_MOTION":13.34193868,"ECCENTRICITY":0.0070219,"INCLINATION":89.9941,"RA_OF_ASC_NODE":211.4808,"ARG_OF_PERICENTER":125.46,"MEAN_ANOMALY":346.8774,"EPHEMERIS_TYPE":0,"CLASSIFICATION_TYPE":"U","NORAD_CAT_ID":1511,"ELEMENT_SET_NO":999,"REV_AT_EPOCH":94744,"BSTAR":0.00011524777,"MEAN_MOTION_DOT":6.8e-7,"MEAN_MOTION_DDOT":0}]
